<kml xmlns="http://www.opengis.net/kml/2.2" xmlns:gx="http://www.google.com/kml/ext/2.2" xmlns:xsi="http://www.w3.org/2001/XMLSchema-instance" xsi:schemaLocation="http://www.opengis.net/kml/2.2 https://developers.google.com/kml/schema/kml22gx.xsd"><Document><name>Tourenkarte</name><Placemark id="drawing_feature_1785240292361"><name>Gross Furkahorn</name><description><![CDATA[<a target="_parent" href="https://schluesselstelle.blogspot.com/2026/07/gross-furkahorn-sudostgrat-4c-17-sl.html">Südostgrat 4c (4c)</a>]]></description><Style><IconStyle><scale>1.125</scale><Icon><href>https://map.geo.admin.ch/api/icons/sets/default/icons/001-marker@1x-255,0,0.png</href><gx:w>48</gx:w><gx:h>48</gx:h></Icon><hotSpot x="24" y="6" xunits="pixels" yunits="pixels"/></IconStyle><LabelStyle><color>ff0000ff</color></LabelStyle></Style><ExtendedData><Data name="showDescriptionOnMap"><value>false</value></Data><Data name="textOffset"><value>0,-42</value></Data><Data name="type"><value>marker</value></Data></ExtendedData><Point><coordinates>8.410447077257443,46.59656529728129,0</coordinates></Point></Placemark><Placemark id="drawing_feature_1785240810026"><name>Namenloser Turm</name><description><![CDATA[<a target="_blank" href="https://schluesselstelle.blogspot.com/2026/07/bockmattli-chronos-6b-5-sl-185m.html">Chronos 6b (6a )</a>
<br>
<a target="_parent" href="https://schluesselstelle.blogspot.com/2026/07/bockmattli-kairos-6b-6-sl-180m.html">Kairos 6b (6a)</a>
<br>
<a target="_blank" href="https://schluesselstelle.blogspot.com/2026/05/bockmattli-hohlenweg-6b-5c-11-sl-305m.html">Höhlenweg 6b (5c )</a>
<br>
<a target="_blank" href="https://schluesselstelle.blogspot.com/2026/05/bockmattli-namenlose-kante-5b-4c-9-sl.html">Namenlose Kante 5b (4c)</a>
<br>
<a target="_blank" href="https://schluesselstelle.blogspot.com/2026/08/bockmattli-meriba-5c-5c-5-sl-185m.html">Meriba 5c  (5c)</a>]]></description><Style><IconStyle><scale>1.125</scale><Icon><href>https://map.geo.admin.ch/api/icons/sets/default/icons/001-marker@1x-255,0,0.png</href><gx:w>48</gx:w><gx:h>48</gx:h></Icon><hotSpot x="24" y="6" xunits="pixels" yunits="pixels"/></IconStyle><LabelStyle><color>ff0000ff</color></LabelStyle></Style><ExtendedData><Data name="showDescriptionOnMap"><value>false</value></Data><Data name="textOffset"><value>0,-42</value></Data><Data name="type"><value>marker</value></Data></ExtendedData><Point><coordinates>8.954420019827202,47.09946292347343,0</coordinates></Point></Placemark><Placemark id="drawing_feature_1785241870190"><name>Torre dal Päl</name><description><![CDATA[<a target="_parent" href="https://schluesselstelle.blogspot.com/2026/07/albigna-tag-1-2-von-3-piz-dal-pal-el.html">El Chorro 7a (6a )</a>]]></description><Style><IconStyle><scale>1.125</scale><Icon><href>https://map.geo.admin.ch/api/icons/sets/default/icons/001-marker@1x-255,0,0.png</href><gx:w>48</gx:w><gx:h>48</gx:h></Icon><hotSpot x="24" y="6" xunits="pixels" yunits="pixels"/></IconStyle><LabelStyle><color>ff0000ff</color></LabelStyle></Style><ExtendedData><Data name="showDescriptionOnMap"><value>false</value></Data><Data name="textOffset"><value>0,-42</value></Data><Data name="type"><value>marker</value></Data></ExtendedData><Point><coordinates>9.658613484885308,46.33171219512,0</coordinates></Point></Placemark><Placemark id="drawing_feature_1785241978568"><name>Spazzacaldera</name><description><![CDATA[<a target="_parent" href="https://schluesselstelle.blogspot.com/2026/07/albigna-tag-3-spazzacaldeira-via-ne.html">NE-Grat, Variante Nigg, Fiamma Normalweg</a>]]></description><Style><IconStyle><scale>1.125</scale><Icon><href>https://map.geo.admin.ch/api/icons/sets/default/icons/001-marker@1x-255,0,0.png</href><gx:w>48</gx:w><gx:h>48</gx:h></Icon><hotSpot x="24" y="6" xunits="pixels" yunits="pixels"/></IconStyle><LabelStyle><color>ff0000ff</color></LabelStyle></Style><ExtendedData><Data name="showDescriptionOnMap"><value>false</value></Data><Data name="textOffset"><value>0,-42</value></Data><Data name="type"><value>marker</value></Data></ExtendedData><Point><coordinates>9.638714836596588,46.339121227501664,0</coordinates></Point></Placemark><Placemark id="drawing_feature_1785242100251"><name>Pilatus Kulm</name><description><![CDATA[<a target="_parent" href="https://schluesselstelle.blogspot.com/2026/07/pilatusdrache-galtigengrat-und-esel-via.html">Pilatusdrache, Galtigengrat, Esel</a>]]></description><Style><IconStyle><scale>1.125</scale><Icon><href>https://map.geo.admin.ch/api/icons/sets/default/icons/001-marker@1x-255,0,0.png</href><gx:w>48</gx:w><gx:h>48</gx:h></Icon><hotSpot x="24" y="6" xunits="pixels" yunits="pixels"/></IconStyle><LabelStyle><color>ff0000ff</color></LabelStyle></Style><ExtendedData><Data name="showDescriptionOnMap"><value>false</value></Data><Data name="textOffset"><value>0,-42</value></Data><Data name="type"><value>marker</value></Data></ExtendedData><Point><coordinates>8.25635484708486,46.979392460301355,0</coordinates></Point></Placemark><Placemark id="drawing_feature_1785452884534"><name>Gemsplanggenstock</name><description><![CDATA[<a target="_blank" href="https://schluesselstelle.blogspot.com/2026/06/salbitschijen-huttengrat.html">Hüttengrat 4c (4c)</a>]]></description><Style><IconStyle><scale>1.125</scale><Icon><href>https://map.geo.admin.ch/api/icons/sets/default/icons/001-marker@1x-255,0,0.png</href><gx:w>48</gx:w><gx:h>48</gx:h></Icon><hotSpot x="24" y="6" xunits="pixels" yunits="pixels"/></IconStyle><LabelStyle><color>ff0000ff</color></LabelStyle></Style><ExtendedData><Data name="showDescriptionOnMap"><value>false</value></Data><Data name="textOffset"><value>0,-42</value></Data><Data name="type"><value>marker</value></Data></ExtendedData><Point><coordinates>8.535634800589504,46.68300235924717,0</coordinates></Point></Placemark><Placemark id="drawing_feature_1785511880484"><name>Ärmighorn SW-Gipfel</name><description><![CDATA[<a target="_blank" href="https://schluesselstelle.blogspot.com/2026/05/armighorn-westgrat-varianten-graue.html">Westgrat Varianten und Graue Platten</a>]]></description><Style><IconStyle><scale>1.125</scale><Icon><href>https://map.geo.admin.ch/api/icons/sets/default/icons/001-marker@1x-255,0,0.png</href><gx:w>48</gx:w><gx:h>48</gx:h></Icon><hotSpot x="24" y="6" xunits="pixels" yunits="pixels"/></IconStyle><LabelStyle><color>ff0000ff</color></LabelStyle></Style><ExtendedData><Data name="showDescriptionOnMap"><value>false</value></Data><Data name="textOffset"><value>0,-42</value></Data><Data name="type"><value>marker</value></Data></ExtendedData><Point><coordinates>7.708785793098921,46.536614249425135,0</coordinates></Point></Placemark><Placemark id="drawing_feature_1785692029100"><name>Sandührliweg</name><description><![CDATA[<a target="_blank" href="https://schluesselstelle.blogspot.com/2026/05/schafbergwand-galoschen-des-glucks-7a.html">Galoschen des Glücks 7a (6b )</a>]]></description><Style><IconStyle><scale>1.125</scale><Icon><href>https://map.geo.admin.ch/api/icons/sets/default/icons/001-marker@1x-255,0,0.png</href><gx:w>48</gx:w><gx:h>48</gx:h></Icon><hotSpot x="24" y="6" xunits="pixels" yunits="pixels"/></IconStyle><LabelStyle><color>ff0000ff</color></LabelStyle></Style><ExtendedData><Data name="showDescriptionOnMap"><value>false</value></Data><Data name="textOffset"><value>0,-42</value></Data><Data name="type"><value>marker</value></Data></ExtendedData><Point><coordinates>9.355229689254891,47.21992857818182,0</coordinates></Point></Placemark><Placemark id="drawing_feature_1785875406895"><name>Monte Garzo</name><description><![CDATA[<a target="_blank" href="https://schluesselstelle.blogspot.com/2026/03/monte-garzo-alhambra-6b-6a-18-sl-600m.html">Alhambra 6b  (6a )</a>]]></description><Style><IconStyle><scale>1.125</scale><Icon><href>https://map.geo.admin.ch/api/icons/sets/default/icons/001-marker@1x-255,0,0.png</href><gx:w>48</gx:w><gx:h>48</gx:h></Icon><hotSpot x="24" y="6" xunits="pixels" yunits="pixels"/></IconStyle><LabelStyle><color>ff0000ff</color></LabelStyle></Style><ExtendedData><Data name="showDescriptionOnMap"><value>false</value></Data><Data name="textOffset"><value>0,-42</value></Data><Data name="type"><value>marker</value></Data></ExtendedData><Point><coordinates>8.762642415501178,46.193807457987106,0</coordinates></Point></Placemark><Placemark id="drawing_feature_1786300405648"><name>Speroni di Ponte Brolla</name><description><![CDATA[<a target="_blank" href="https://schluesselstelle.blogspot.com/2025/12/speroni-di-ponte-brolla-quarzo-6a-5b-11.html">Quarzo 6a (5b)</a>]]></description><Style><IconStyle><scale>1.125</scale><Icon><href>https://map.geo.admin.ch/api/icons/sets/default/icons/001-marker@1x-255,0,0.png</href><gx:w>48</gx:w><gx:h>48</gx:h></Icon><hotSpot x="24" y="6" xunits="pixels" yunits="pixels"/></IconStyle><LabelStyle><color>ff0000ff</color></LabelStyle></Style><ExtendedData><Data name="showDescriptionOnMap"><value>false</value></Data><Data name="textOffset"><value>0,-42</value></Data><Data name="type"><value>marker</value></Data></ExtendedData><Point><coordinates>8.762268175602037,46.18759080566972,0</coordinates></Point></Placemark><Placemark id="drawing_feature_1786388215471"><name>Undertalstock</name><description><![CDATA[<a target="_blank" href="https://schluesselstelle.blogspot.com/2026/08/undertalstock-oktober-sunne-6b-5c.html">Oktober Sunne 6b  (5c) und Ostwand 5b  (5b)</a>]]></description><Style><IconStyle><scale>1.125</scale><Icon><href>https://map.geo.admin.ch/api/icons/sets/default/icons/001-marker@1x-255,0,0.png</href><gx:w>48</gx:w><gx:h>48</gx:h></Icon><hotSpot x="24" y="6" xunits="pixels" yunits="pixels"/></IconStyle><LabelStyle><color>ff0000ff</color></LabelStyle></Style><ExtendedData><Data name="showDescriptionOnMap"><value>false</value></Data><Data name="textOffset"><value>0,-42</value></Data><Data name="type"><value>marker</value></Data></ExtendedData><Point><coordinates>8.429562197981154,46.74845326628072,0</coordinates></Point></Placemark><Placemark id="drawing_feature_1786902550892"><name>Kleines Kamel</name><description><![CDATA[<a target="_blank" href="https://schluesselstelle.blogspot.com/2026/08/kleines-kamel-camelback-6c-6c-4-sl-120m.html">Camelback 6c  (6c)</a>]]></description><Style><IconStyle><scale>1.125</scale><Icon><href>https://map.geo.admin.ch/api/icons/sets/default/icons/001-marker@1x-255,0,0.png</href><gx:w>48</gx:w><gx:h>48</gx:h></Icon><hotSpot x="24" y="6" xunits="pixels" yunits="pixels"/></IconStyle><LabelStyle><color>ff0000ff</color></LabelStyle></Style><ExtendedData><Data name="showDescriptionOnMap"><value>false</value></Data><Data name="textOffset"><value>0,-42</value></Data><Data name="type"><value>marker</value></Data></ExtendedData><Point><coordinates>8.431250133024761,46.600765620754856,0</coordinates></Point></Placemark><Placemark id="drawing_feature_1787156609329"><name>Chli Bielenhorn</name><description></description><Style><IconStyle><scale>1.125</scale><Icon><href>https://map.geo.admin.ch/api/icons/sets/default/icons/001-marker@1x-255,0,0.png</href><gx:w>48</gx:w><gx:h>48</gx:h></Icon><hotSpot x="24" y="6" xunits="pixels" yunits="pixels"/></IconStyle><LabelStyle><color>ff0000ff</color></LabelStyle></Style><ExtendedData><Data name="showDescriptionOnMap"><value>false</value></Data><Data name="textOffset"><value>0,-42</value></Data><Data name="type"><value>marker</value></Data></ExtendedData><Point><coordinates>8.434820859409772,46.59888776125961,0</coordinates></Point></Placemark><Placemark id="drawing_feature_1787156646764"><name>Hannibalturm</name><description></description><Style><IconStyle><scale>1.125</scale><Icon><href>https://map.geo.admin.ch/api/icons/sets/default/icons/001-marker@1x-255,0,0.png</href><gx:w>48</gx:w><gx:h>48</gx:h></Icon><hotSpot x="24" y="6" xunits="pixels" yunits="pixels"/></IconStyle><LabelStyle><color>ff0000ff</color></LabelStyle></Style><ExtendedData><Data name="showDescriptionOnMap"><value>false</value></Data><Data name="textOffset"><value>0,-42</value></Data><Data name="type"><value>marker</value></Data></ExtendedData><Point><coordinates>8.419683430365927,46.59924495470826,0</coordinates></Point></Placemark><Placemark id="drawing_feature_1787156672263"><name>Galenstock</name><description></description><Style><IconStyle><scale>1.125</scale><Icon><href>https://map.geo.admin.ch/api/icons/sets/default/icons/001-marker@1x-255,0,0.png</href><gx:w>48</gx:w><gx:h>48</gx:h></Icon><hotSpot x="24" y="6" xunits="pixels" yunits="pixels"/></IconStyle><LabelStyle><color>ff0000ff</color></LabelStyle></Style><ExtendedData><Data name="showDescriptionOnMap"><value>false</value></Data><Data name="textOffset"><value>0,-42</value></Data><Data name="type"><value>marker</value></Data></ExtendedData><Point><coordinates>8.41696296633119,46.612631285391835,0</coordinates></Point></Placemark><Placemark id="drawing_feature_1787156747280"><name>Sustenlochspitz</name><description></description><Style><IconStyle><scale>1.125</scale><Icon><href>https://map.geo.admin.ch/api/icons/sets/default/icons/001-marker@1x-255,0,0.png</href><gx:w>48</gx:w><gx:h>48</gx:h></Icon><hotSpot x="24" y="6" xunits="pixels" yunits="pixels"/></IconStyle><LabelStyle><color>ff0000ff</color></LabelStyle></Style><ExtendedData><Data name="showDescriptionOnMap"><value>false</value></Data><Data name="textOffset"><value>0,-42</value></Data><Data name="type"><value>marker</value></Data></ExtendedData><Point><coordinates>8.443349830145657,46.74806757863546,0</coordinates></Point></Placemark><Placemark id="drawing_feature_1787156810270"><name>Pfriendler</name><description></description><Style><IconStyle><scale>1.125</scale><Icon><href>https://map.geo.admin.ch/api/icons/sets/default/icons/001-marker@1x-255,0,0.png</href><gx:w>48</gx:w><gx:h>48</gx:h></Icon><hotSpot x="24" y="6" xunits="pixels" yunits="pixels"/></IconStyle><LabelStyle><color>ff0000ff</color></LabelStyle></Style><ExtendedData><Data name="showDescriptionOnMap"><value>false</value></Data><Data name="textOffset"><value>0,-42</value></Data><Data name="type"><value>marker</value></Data></ExtendedData><Point><coordinates>8.422141583291546,46.74038240987759,0</coordinates></Point></Placemark><Placemark id="drawing_feature_1787156866828"><name>Chaiserstock</name><description></description><Style><IconStyle><scale>1.125</scale><Icon><href>https://map.geo.admin.ch/api/icons/sets/default/icons/001-marker@1x-255,0,0.png</href><gx:w>48</gx:w><gx:h>48</gx:h></Icon><hotSpot x="24" y="6" xunits="pixels" yunits="pixels"/></IconStyle><LabelStyle><color>ff0000ff</color></LabelStyle></Style><ExtendedData><Data name="showDescriptionOnMap"><value>false</value></Data><Data name="textOffset"><value>0,-42</value></Data><Data name="type"><value>marker</value></Data></ExtendedData><Point><coordinates>8.728493125845713,46.92840342657077,0</coordinates></Point></Placemark><Placemark id="drawing_feature_1787156961026"><name></name><Style><IconStyle><scale>1.125</scale><Icon><href>https://map.geo.admin.ch/api/icons/sets/default/icons/001-marker@1x-255,0,0.png</href><gx:w>48</gx:w><gx:h>48</gx:h></Icon><hotSpot x="24" y="6" xunits="pixels" yunits="pixels"/></IconStyle><LabelStyle><color>ff0000ff</color><scale>1.5</scale></LabelStyle></Style><ExtendedData><Data name="showDescriptionOnMap"><value>false</value></Data><Data name="textOffset"><value>0,0</value></Data><Data name="type"><value>marker</value></Data></ExtendedData><Point><coordinates>8.284439936511276,46.77618954654708,0</coordinates></Point></Placemark><Placemark id="drawing_feature_1787156968139"><name>Bonistock</name><description></description><Style><IconStyle><scale>1.125</scale><Icon><href>https://map.geo.admin.ch/api/icons/sets/default/icons/001-marker@1x-255,0,0.png</href><gx:w>48</gx:w><gx:h>48</gx:h></Icon><hotSpot x="24" y="6" xunits="pixels" yunits="pixels"/></IconStyle><LabelStyle><color>ff0000ff</color></LabelStyle></Style><ExtendedData><Data name="showDescriptionOnMap"><value>false</value></Data><Data name="textOffset"><value>0,-42</value></Data><Data name="type"><value>marker</value></Data></ExtendedData><Point><coordinates>8.29260244553939,46.777413113606436,0</coordinates></Point></Placemark><Placemark id="drawing_feature_1787157002248"><name>Brüggler</name><description></description><Style><IconStyle><scale>1.125</scale><Icon><href>https://map.geo.admin.ch/api/icons/sets/default/icons/001-marker@1x-255,0,0.png</href><gx:w>48</gx:w><gx:h>48</gx:h></Icon><hotSpot x="24" y="6" xunits="pixels" yunits="pixels"/></IconStyle><LabelStyle><color>ff0000ff</color></LabelStyle></Style><ExtendedData><Data name="showDescriptionOnMap"><value>false</value></Data><Data name="textOffset"><value>0,-42</value></Data><Data name="type"><value>marker</value></Data></ExtendedData><Point><coordinates>8.984274469153773,47.11762268025563,0</coordinates></Point></Placemark><Placemark id="drawing_feature_1787157035720"><name>Chöpfenberg</name><description></description><Style><IconStyle><scale>1.125</scale><Icon><href>https://map.geo.admin.ch/api/icons/sets/default/icons/001-marker@1x-255,0,0.png</href><gx:w>48</gx:w><gx:h>48</gx:h></Icon><hotSpot x="24" y="6" xunits="pixels" yunits="pixels"/></IconStyle><LabelStyle><color>ff0000ff</color></LabelStyle></Style><ExtendedData><Data name="showDescriptionOnMap"><value>false</value></Data><Data name="textOffset"><value>0,-42</value></Data><Data name="type"><value>marker</value></Data></ExtendedData><Point><coordinates>8.968568867414383,47.118713180530335,0</coordinates></Point></Placemark><Placemark id="drawing_feature_1787157102642"><name>Kleiner Bockmattliturm</name><description></description><Style><IconStyle><scale>1.125</scale><Icon><href>https://map.geo.admin.ch/api/icons/sets/default/icons/001-marker@1x-255,0,0.png</href><gx:w>48</gx:w><gx:h>48</gx:h></Icon><hotSpot x="24" y="6" xunits="pixels" yunits="pixels"/></IconStyle><LabelStyle><color>ff0000ff</color></LabelStyle></Style><ExtendedData><Data name="showDescriptionOnMap"><value>false</value></Data><Data name="textOffset"><value>0,-42</value></Data><Data name="type"><value>marker</value></Data></ExtendedData><Point><coordinates>8.953575576453202,47.1004283494216,0</coordinates></Point></Placemark><Placemark id="drawing_feature_1787157121041"><name>Föhrenturm</name><description></description><Style><IconStyle><scale>1.125</scale><Icon><href>https://map.geo.admin.ch/api/icons/sets/default/icons/001-marker@1x-255,0,0.png</href><gx:w>48</gx:w><gx:h>48</gx:h></Icon><hotSpot x="24" y="6" xunits="pixels" yunits="pixels"/></IconStyle><LabelStyle><color>ff0000ff</color></LabelStyle></Style><ExtendedData><Data name="showDescriptionOnMap"><value>false</value></Data><Data name="textOffset"><value>0,-42</value></Data><Data name="type"><value>marker</value></Data></ExtendedData><Point><coordinates>8.953755595337519,47.10055377156297,0</coordinates></Point></Placemark><Placemark id="drawing_feature_1787157147326"><name>Grosser Bockmattliturm</name><description></description><Style><IconStyle><scale>1.125</scale><Icon><href>https://map.geo.admin.ch/api/icons/sets/default/icons/001-marker@1x-255,0,0.png</href><gx:w>48</gx:w><gx:h>48</gx:h></Icon><hotSpot x="24" y="6" xunits="pixels" yunits="pixels"/></IconStyle><LabelStyle><color>ff0000ff</color></LabelStyle></Style><ExtendedData><Data name="showDescriptionOnMap"><value>false</value></Data><Data name="textOffset"><value>0,-42</value></Data><Data name="type"><value>marker</value></Data></ExtendedData><Point><coordinates>8.956025119065126,47.10176161502231,0</coordinates></Point></Placemark><Placemark id="drawing_feature_1787157170770"><name>Bockmattli Westpfeiler</name><description></description><Style><IconStyle><scale>1.125</scale><Icon><href>https://map.geo.admin.ch/api/icons/sets/default/icons/001-marker@1x-255,0,0.png</href><gx:w>48</gx:w><gx:h>48</gx:h></Icon><hotSpot x="24" y="6" xunits="pixels" yunits="pixels"/></IconStyle><LabelStyle><color>ff0000ff</color></LabelStyle></Style><ExtendedData><Data name="showDescriptionOnMap"><value>false</value></Data><Data name="textOffset"><value>0,-42</value></Data><Data name="type"><value>marker</value></Data></ExtendedData><Point><coordinates>8.95644471845688,47.10090531455636,0</coordinates></Point></Placemark><Placemark id="drawing_feature_1787157205325"><name>Schiberg Nordkantenabbruch</name><description></description><Style><IconStyle><scale>1.125</scale><Icon><href>https://map.geo.admin.ch/api/icons/sets/default/icons/001-marker@1x-255,0,0.png</href><gx:w>48</gx:w><gx:h>48</gx:h></Icon><hotSpot x="24" y="6" xunits="pixels" yunits="pixels"/></IconStyle><LabelStyle><color>ff0000ff</color></LabelStyle></Style><ExtendedData><Data name="showDescriptionOnMap"><value>false</value></Data><Data name="textOffset"><value>0,-42</value></Data><Data name="type"><value>marker</value></Data></ExtendedData><Point><coordinates>8.950686738172083,47.09898161553081,0</coordinates></Point></Placemark><Placemark id="drawing_feature_1787157252369"><name>Bockmattlihütte</name><description><![CDATA[[Hütte]
am Wochenende bewartet]]></description><Style><IconStyle><scale>0.75</scale><Icon><href>https://map.geo.admin.ch/api/icons/sets/default/icons/056-building@1x-255,0,0.png</href><gx:w>48</gx:w><gx:h>48</gx:h></Icon></IconStyle><LabelStyle><color>ff0000ff</color></LabelStyle></Style><ExtendedData><Data name="showDescriptionOnMap"><value>false</value></Data><Data name="textOffset"><value>0,-22.5</value></Data><Data name="type"><value>marker</value></Data></ExtendedData><Point><coordinates>8.950309514720326,47.0994291305714,0</coordinates></Point></Placemark><Placemark id="drawing_feature_1787157368348"><name>Matthorn</name><description></description><Style><IconStyle><scale>1.125</scale><Icon><href>https://map.geo.admin.ch/api/icons/sets/default/icons/001-marker@1x-255,0,0.png</href><gx:w>48</gx:w><gx:h>48</gx:h></Icon><hotSpot x="24" y="6" xunits="pixels" yunits="pixels"/></IconStyle><LabelStyle><color>ff0000ff</color></LabelStyle></Style><ExtendedData><Data name="showDescriptionOnMap"><value>false</value></Data><Data name="textOffset"><value>0,-42</value></Data><Data name="type"><value>marker</value></Data></ExtendedData><Point><coordinates>8.25328898029117,46.97062217164138,0</coordinates></Point></Placemark><Placemark id="drawing_feature_1787157411931"><name>Holzwangflue</name><description></description><Style><IconStyle><scale>1.125</scale><Icon><href>https://map.geo.admin.ch/api/icons/sets/default/icons/001-marker@1x-255,0,0.png</href><gx:w>48</gx:w><gx:h>48</gx:h></Icon><hotSpot x="24" y="6" xunits="pixels" yunits="pixels"/></IconStyle><LabelStyle><color>ff0000ff</color></LabelStyle></Style><ExtendedData><Data name="showDescriptionOnMap"><value>false</value></Data><Data name="textOffset"><value>0,-42</value></Data><Data name="type"><value>marker</value></Data></ExtendedData><Point><coordinates>8.23928283703775,46.96935783674912,0</coordinates></Point></Placemark><Placemark id="drawing_feature_1787157440660"><name>Brunnen</name><description>[Wasserstelle]</description><Style><IconStyle><scale>0.75</scale><Icon><href>https://map.geo.admin.ch/api/icons/sets/default/icons/114-water@1x-0,0,255.png</href><gx:w>48</gx:w><gx:h>48</gx:h></Icon></IconStyle><LabelStyle><color>ff0000ff</color></LabelStyle></Style><ExtendedData><Data name="showDescriptionOnMap"><value>false</value></Data><Data name="textOffset"><value>0,-22.5</value></Data><Data name="type"><value>marker</value></Data></ExtendedData><Point><coordinates>8.271327970016186,46.97001222999867,0</coordinates></Point></Placemark><Placemark id="drawing_feature_1787157518917"><name>Brunnen</name><description>[Wasserstelle]</description><Style><IconStyle><scale>0.75</scale><Icon><href>https://map.geo.admin.ch/api/icons/sets/default/icons/114-water@1x-0,0,255.png</href><gx:w>48</gx:w><gx:h>48</gx:h></Icon></IconStyle><LabelStyle><color>ff0000ff</color></LabelStyle></Style><ExtendedData><Data name="showDescriptionOnMap"><value>false</value></Data><Data name="textOffset"><value>0,-22.5</value></Data><Data name="type"><value>marker</value></Data></ExtendedData><Point><coordinates>8.260162895311137,46.97241234230394,0</coordinates></Point></Placemark><Placemark id="drawing_feature_1787161485538"><name>Parkplatz Innerthal</name><description><![CDATA[[Parkplatz]
zahlungspflichtig
ab hier: Zustieg Bockmattli, Schiberg]]></description><Style><IconStyle><scale>0.75</scale><Icon><href>https://map.geo.admin.ch/api/icons/sets/default/icons/078-parking@1x-0,0,255.png</href><gx:w>48</gx:w><gx:h>48</gx:h></Icon></IconStyle><LabelStyle><color>ff0000ff</color></LabelStyle></Style><ExtendedData><Data name="showDescriptionOnMap"><value>false</value></Data><Data name="textOffset"><value>0,-22.5</value></Data><Data name="type"><value>marker</value></Data></ExtendedData><Point><coordinates>8.919634451277874,47.105131078576534,0</coordinates></Point></Placemark><Placemark id="drawing_feature_1787161777667"><name>Parkplatz Schwändital</name><description><![CDATA[[Parkplatz]
ab hier: Zustieg Brüggler, Chöpfenberg]]></description><Style><IconStyle><scale>0.75</scale><Icon><href>https://map.geo.admin.ch/api/icons/sets/default/icons/078-parking@1x-0,0,255.png</href><gx:w>48</gx:w><gx:h>48</gx:h></Icon></IconStyle><LabelStyle><color>ff0000ff</color></LabelStyle></Style><ExtendedData><Data name="showDescriptionOnMap"><value>false</value></Data><Data name="textOffset"><value>0,-22.5</value></Data><Data name="type"><value>marker</value></Data></ExtendedData><Point><coordinates>9.005075824433202,47.107404716007174,0</coordinates></Point></Placemark><Placemark id="drawing_feature_1787161932332"><name>Parkplatz Wildhaus</name><description><![CDATA[[Parkplatz]
ab hier: Zustieg Schafbergwand]]></description><Style><IconStyle><scale>0.75</scale><Icon><href>https://map.geo.admin.ch/api/icons/sets/default/icons/078-parking@1x-0,0,255.png</href><gx:w>48</gx:w><gx:h>48</gx:h></Icon></IconStyle><LabelStyle><color>ff0000ff</color></LabelStyle></Style><ExtendedData><Data name="showDescriptionOnMap"><value>false</value></Data><Data name="textOffset"><value>0,-22.5</value></Data><Data name="type"><value>marker</value></Data></ExtendedData><Point><coordinates>9.352409913698258,47.20534396427336,0</coordinates></Point></Placemark><Placemark id="drawing_feature_1787161992212"><name>Parkplatz Wildhaus</name><description><![CDATA[[Parkplatz]
nur für Kunden der Gondelbahn (Gamplüt: <a target="_blank" href="https://www.xn--gamplt-7ya.ch/">Webseite</a>)
ab hier: Zustieg Schafbergwand]]></description><Style><IconStyle><scale>0.75</scale><Icon><href>https://map.geo.admin.ch/api/icons/sets/default/icons/078-parking@1x-0,0,255.png</href><gx:w>48</gx:w><gx:h>48</gx:h></Icon></IconStyle><LabelStyle><color>ff0000ff</color></LabelStyle></Style><ExtendedData><Data name="showDescriptionOnMap"><value>false</value></Data><Data name="textOffset"><value>0,-22.5</value></Data><Data name="type"><value>marker</value></Data></ExtendedData><Point><coordinates>9.356952950883851,47.207389370083945,0</coordinates></Point></Placemark><Placemark id="drawing_feature_1787162147411"><name>Altenalptürm</name><description></description><Style><IconStyle><scale>1.125</scale><Icon><href>https://map.geo.admin.ch/api/icons/sets/default/icons/001-marker@1x-255,0,0.png</href><gx:w>48</gx:w><gx:h>48</gx:h></Icon><hotSpot x="24" y="6" xunits="pixels" yunits="pixels"/></IconStyle><LabelStyle><color>ff0000ff</color></LabelStyle></Style><ExtendedData><Data name="showDescriptionOnMap"><value>false</value></Data><Data name="textOffset"><value>0,-42</value></Data><Data name="type"><value>marker</value></Data></ExtendedData><Point><coordinates>9.379380057780297,47.271007844978065,0</coordinates></Point></Placemark><Placemark id="drawing_feature_1787162243464"><name>Zuestoll Südwand</name><description></description><Style><IconStyle><scale>1.125</scale><Icon><href>https://map.geo.admin.ch/api/icons/sets/default/icons/001-marker@1x-255,0,0.png</href><gx:w>48</gx:w><gx:h>48</gx:h></Icon><hotSpot x="24" y="6" xunits="pixels" yunits="pixels"/></IconStyle><LabelStyle><color>ff0000ff</color></LabelStyle></Style><ExtendedData><Data name="showDescriptionOnMap"><value>false</value></Data><Data name="textOffset"><value>0,-42</value></Data><Data name="type"><value>marker</value></Data></ExtendedData><Point><coordinates>9.286052816408606,47.15427303569107,0</coordinates></Point></Placemark><Placemark id="drawing_feature_1787162344423"><name>Rautispitz</name><description></description><Style><IconStyle><scale>1.125</scale><Icon><href>https://map.geo.admin.ch/api/icons/sets/default/icons/001-marker@1x-255,0,0.png</href><gx:w>48</gx:w><gx:h>48</gx:h></Icon><hotSpot x="24" y="6" xunits="pixels" yunits="pixels"/></IconStyle><LabelStyle><color>ff0000ff</color></LabelStyle></Style><ExtendedData><Data name="showDescriptionOnMap"><value>false</value></Data><Data name="textOffset"><value>0,-42</value></Data><Data name="type"><value>marker</value></Data></ExtendedData><Point><coordinates>9.028480253012809,47.07147507235343,0</coordinates></Point></Placemark><Placemark id="drawing_feature_1787162411695"><name>Eiger Südwand</name><description></description><Style><IconStyle><scale>1.125</scale><Icon><href>https://map.geo.admin.ch/api/icons/sets/default/icons/001-marker@1x-255,0,0.png</href><gx:w>48</gx:w><gx:h>48</gx:h></Icon><hotSpot x="24" y="6" xunits="pixels" yunits="pixels"/></IconStyle><LabelStyle><color>ff0000ff</color></LabelStyle></Style><ExtendedData><Data name="showDescriptionOnMap"><value>false</value></Data><Data name="textOffset"><value>0,-42</value></Data><Data name="type"><value>marker</value></Data></ExtendedData><Point><coordinates>8.007574916640525,46.577835082617554,0</coordinates></Point></Placemark><Placemark id="drawing_feature_1787162533437"><name>Dammazwillinge</name><description></description><Style><IconStyle><scale>1.125</scale><Icon><href>https://map.geo.admin.ch/api/icons/sets/default/icons/001-marker@1x-255,0,0.png</href><gx:w>48</gx:w><gx:h>48</gx:h></Icon><hotSpot x="24" y="6" xunits="pixels" yunits="pixels"/></IconStyle><LabelStyle><color>ff0000ff</color></LabelStyle></Style><ExtendedData><Data name="showDescriptionOnMap"><value>false</value></Data><Data name="textOffset"><value>0,-42</value></Data><Data name="type"><value>marker</value></Data></ExtendedData><Point><coordinates>8.431387844187604,46.62258065421256,0</coordinates></Point></Placemark><Placemark id="drawing_feature_1787162595923"><name>Gletschhorn</name><description></description><Style><IconStyle><scale>1.125</scale><Icon><href>https://map.geo.admin.ch/api/icons/sets/default/icons/001-marker@1x-255,0,0.png</href><gx:w>48</gx:w><gx:h>48</gx:h></Icon><hotSpot x="24" y="6" xunits="pixels" yunits="pixels"/></IconStyle><LabelStyle><color>ff0000ff</color></LabelStyle></Style><ExtendedData><Data name="showDescriptionOnMap"><value>false</value></Data><Data name="textOffset"><value>0,-42</value></Data><Data name="type"><value>marker</value></Data></ExtendedData><Point><coordinates>8.43888143569053,46.61981620823005,0</coordinates></Point></Placemark><Placemark id="drawing_feature_1787162620396"><name>Graue Wand</name><description></description><Style><IconStyle><scale>1.125</scale><Icon><href>https://map.geo.admin.ch/api/icons/sets/default/icons/001-marker@1x-255,0,0.png</href><gx:w>48</gx:w><gx:h>48</gx:h></Icon><hotSpot x="24" y="6" xunits="pixels" yunits="pixels"/></IconStyle><LabelStyle><color>ff0000ff</color></LabelStyle></Style><ExtendedData><Data name="showDescriptionOnMap"><value>false</value></Data><Data name="textOffset"><value>0,-42</value></Data><Data name="type"><value>marker</value></Data></ExtendedData><Point><coordinates>8.444984498168546,46.62032887697274,0</coordinates></Point></Placemark><Placemark id="drawing_feature_1787162661928"><name>Salbitschijen</name><description></description><Style><IconStyle><scale>1.125</scale><Icon><href>https://map.geo.admin.ch/api/icons/sets/default/icons/001-marker@1x-255,0,0.png</href><gx:w>48</gx:w><gx:h>48</gx:h></Icon><hotSpot x="24" y="6" xunits="pixels" yunits="pixels"/></IconStyle><LabelStyle><color>ff0000ff</color></LabelStyle></Style><ExtendedData><Data name="showDescriptionOnMap"><value>false</value></Data><Data name="textOffset"><value>0,-42</value></Data><Data name="type"><value>marker</value></Data></ExtendedData><Point><coordinates>8.52948307631415,46.680572444982324,0</coordinates></Point></Placemark><Placemark id="drawing_feature_1787162687634"><name>Salbithütte</name><description><![CDATA[[SAC-Hütte]
ab hier: Zustieg Salbit, Gemsplanggenstock, Meiggelenstock, angrenzende Klettergärten]]></description><Style><IconStyle><scale>0.75</scale><Icon><href>https://map.geo.admin.ch/api/icons/sets/default/icons/056-building@1x-255,0,0.png</href><gx:w>48</gx:w><gx:h>48</gx:h></Icon></IconStyle><LabelStyle><color>ff0000ff</color></LabelStyle></Style><ExtendedData><Data name="showDescriptionOnMap"><value>false</value></Data><Data name="textOffset"><value>0,-22.5</value></Data><Data name="type"><value>marker</value></Data></ExtendedData><Point><coordinates>8.551800820301214,46.67642713142609,0</coordinates></Point></Placemark><Placemark id="drawing_feature_1787162868970"><name>Vorder Feldschijen Turm III</name><description></description><Style><IconStyle><scale>1.125</scale><Icon><href>https://map.geo.admin.ch/api/icons/sets/default/icons/001-marker@1x-255,0,0.png</href><gx:w>48</gx:w><gx:h>48</gx:h></Icon><hotSpot x="24" y="6" xunits="pixels" yunits="pixels"/></IconStyle><LabelStyle><color>ff0000ff</color></LabelStyle></Style><ExtendedData><Data name="showDescriptionOnMap"><value>false</value></Data><Data name="textOffset"><value>0,-42</value></Data><Data name="type"><value>marker</value></Data></ExtendedData><Point><coordinates>8.493836457472264,46.631342355092784,0</coordinates></Point></Placemark><Placemark id="drawing_feature_1788903129081"><name>Wandfussplatten</name><description><![CDATA[<a target="_blank" href="https://schluesselstelle.blogspot.com/2026/08/wandfussplatten-schwarzgold-6b-6a-5-sl.html">Schwarzgold 6b (6a)</a>]]></description><Style><IconStyle><scale>1.125</scale><Icon><href>https://map.geo.admin.ch/api/icons/sets/default/icons/001-marker@1x-255,0,0.png</href><gx:w>48</gx:w><gx:h>48</gx:h></Icon><hotSpot x="24" y="6" xunits="pixels" yunits="pixels"/></IconStyle><LabelStyle><color>ff0000ff</color></LabelStyle></Style><ExtendedData><Data name="showDescriptionOnMap"><value>false</value></Data><Data name="textOffset"><value>0,-42</value></Data><Data name="type"><value>marker</value></Data></ExtendedData><Point><coordinates>8.415488906824038,46.59390028915422,0</coordinates></Point></Placemark><Placemark id="drawing_feature_1788903347578"><name>Gelmerfluh</name><description><![CDATA[<a target="_blank" href="https://schluesselstelle.blogspot.com/2026/09/gelmerfluh-savoir-vivre-6c-6a-15-sl-400m.html">Savoir Vivre 6c+ (6a)</a>]]></description><Style><IconStyle><scale>1.125</scale><Icon><href>https://map.geo.admin.ch/api/icons/sets/default/icons/001-marker@1x-255,0,0.png</href><gx:w>48</gx:w><gx:h>48</gx:h></Icon><hotSpot x="24" y="6" xunits="pixels" yunits="pixels"/></IconStyle><LabelStyle><color>ff0000ff</color></LabelStyle></Style><ExtendedData><Data name="showDescriptionOnMap"><value>false</value></Data><Data name="textOffset"><value>0,-42</value></Data><Data name="type"><value>marker</value></Data></ExtendedData><Point><coordinates>8.333145625983535,46.59874711934225,0</coordinates></Point></Placemark></Document></kml>